[{"OBJECT_NAME":"SUPERVIEW-1 03","OBJECT_ID":"2018-002A","EPOCH":"2026-03-09T22:14:33.880992","MEAN_MOTION":15.35916978,"ECCENTRICITY":0.00509393,"INCLINATION":97.3162,"RA_OF_ASC_NODE":154.1458,"ARG_OF_PERICENTER":177.0269,"MEAN_ANOMALY":183.1288,"EPHEMERIS_TYPE":0,"CLASSIFICATION_TYPE":"U","NORAD_CAT_ID":43099,"ELEMENT_SET_NO":999,"REV_AT_EPOCH":45311,"BSTAR":0.00062641306,"MEAN_MOTION_DOT":0.00022818,"MEAN_MOTION_DDOT":0},{"OBJECT_NAME":"STARLINK-34226","OBJECT_ID":"2025-133Y","EPOCH":"2026-03-09T10:58:07.142304","MEAN_MOTION":15.30201777,"ECCENTRICITY":0.00010458,"INCLINATION":53.16,"RA_OF_ASC_NODE":117.8139,"ARG_OF_PERICENTER":85.5253,"MEAN_ANOMALY":274.5868,"EPHEMERIS_TYPE":0,"CLASSIFICATION_TYPE":"U","NORAD_CAT_ID":64494,"ELEMENT_SET_NO":999,"REV_AT_EPOCH":4098,"BSTAR":0.00057170817,"MEAN_MOTION_DOT":0.00016612,"MEAN_MOTION_DDOT":0}]
